{
  "norad_id": 47399,
  "name": "STARLINK-2121",
  "history": [
    {
      "epoch": "2026-03-28T21:31:21.056736Z",
      "apogee_km": 475.9630129560783,
      "perigee_km": 474.32713452507596,
      "latitude_deg": 2.0884108565178986e-06,
      "longitude_deg": 158.34353091672742,
      "height_km": 476.200581287765,
      "semi_major_axis_km": 6853.282073740576,
      "eccentricity": 0.00011935,
      "inclination_deg": 53.1594,
      "raan_deg": 307.4919,
      "arg_perigee_deg": 101.0918,
      "mean_anomaly_deg": 259.0217,
      "mean_motion_rev_day": 15.30223443
    }
  ]
}